NORAD_CAT_ID,OBJECT_NAME,OBJECT_TYPE,EPOCH,MEAN_MOTION,ECCENTRICITY,INCLINATION,RA_OF_ASC_NODE,ARG_OF_PERICENTER,MEAN_ANOMALY,BSTAR,MEAN_MOTION_DOT,MEAN_MOTION_DDOT,TLE_LINE0,TLE_LINE1,TLE_LINE2,SEMIMAJOR_AXIS,PERIOD,APOGEE,PERIGEE,DECAYED
49149.0,STARLINK-3053,PAYLOAD,2022-03-31 20:00:01,14.98345373,0.0003306,70.0008,322.3147,286.3393,144.5383,-0.0019934,-0.00023807,0.0,0 STARLINK-3053,1 49149U 21082V   22090.83334491 -.00023807  00000-0 -19934-2 0  9998,2 49149  70.0008 322.3147 0003306 286.3393 144.5383 14.98345373 31652,6950.145,96.106,574.308,569.7130000000002,0.0
49149.0,STARLINK-3053,PAYLOAD,2022-03-31 22:00:00,14.983298,0.0003328,70.0006,322.1046,288.0929,232.1659,0.0010075,0.00011949,0.0,0 STARLINK-3053,1 49149U 21082V   22090.91667824  .00011949  00000-0  10075-2 0  9995,2 49149  70.0006 322.1046 0003328 288.0929 232.1659 14.98329800  3559,6950.194,96.107,574.372,569.745,0.0
49149.0,STARLINK-3053,PAYLOAD,2022-04-01 04:00:01,14.98349118,0.0003354,70.0002,321.474,289.8267,138.6057,-0.00015009,-1.884e-05,0.0,0 STARLINK-3053,1 49149U 21082V   22091.16668981 -.00001884  00000-0 -15009-3 0  9990,2 49149  70.0002 321.4740 0003354 289.8267 138.6057 14.98349118 31705,6950.134,96.106,574.33,569.668,0.0
49149.0,STARLINK-3053,PAYLOAD,2022-04-01 14:00:01,14.98349056,0.0003152,70.0002,320.4234,283.022,232.2249,-0.00063535,-7.669e-05,0.0,0 STARLINK-3053,1 49149U 21082V   22091.58334491 -.00007669  00000-0 -63535-3 0  9996,2 49149  70.0002 320.4234 0003152 283.0220 232.2249 14.98349056  3583,6950.134,96.106,574.19,569.808,0.0
49149.0,STARLINK-3053,PAYLOAD,2022-04-01 22:00:00,14.98332106,0.0003251,70.0002,319.5828,287.6204,225.1309,-0.00172,-0.00020557,0.0,0 STARLINK-3053,1 49149U 21082V   22091.91667824 -.00020557  00000-0 -17200-2 0  9990,2 49149  70.0002 319.5828 0003251 287.6204 225.1309 14.98332106  3567,6950.186,96.107,574.311,569.7919999999998,0.0
49149.0,STARLINK-3053,PAYLOAD,2022-04-02 04:00:00,14.98331301,0.0003347,69.9999,318.9522,288.7214,132.1376,-0.002759,-0.00032861,0.0,0 STARLINK-3053,1 49149U 21082V   22092.16667824 -.00032861  00000-0 -27590-2 0  9992,2 49149  69.9999 318.9522 0003347 288.7214 132.1376 14.98331301 31852,6950.189,96.107,574.38,569.7280000000002,0.0
49149.0,STARLINK-3053,PAYLOAD,2022-04-02 14:00:01,14.9830812,0.0003256,70.0,317.9016,281.7939,225.9712,0.0037702,0.00045158,0.0,0 STARLINK-3053,1 49149U 21082V   22092.58335648  .00045158  00000-0  37702-2 0  9991,2 49149  70.0000 317.9016 0003256 281.7939 225.9712 14.98308120 31927,6950.261,96.108,574.389,569.863,0.0
49149.0,STARLINK-3053,PAYLOAD,2022-04-02 22:00:01,14.98321481,0.0003364,70.0,317.061,286.5792,218.6642,0.0010144,0.00012029,0.0,0 STARLINK-3053,1 49149U 21082V   22092.91668981  .00012029  00000-0  10144-2 0  9999,2 49149  70.0000 317.0610 0003364 286.5792 218.6642 14.98321481  3585,6950.219,96.108,574.422,569.746,0.0
49149.0,STARLINK-3053,PAYLOAD,2022-04-03 04:00:00,14.983544199999995,0.0003367,69.9996,316.4304,288.2187,125.0616,-0.0051116,-0.000606,0.0,0 STARLINK-3053,1 49149U 21082V   22093.16667824 -.00060600  00000-0 -51116-2 0  9996,2 49149  69.9996 316.4304 0003367 288.2187 125.0616 14.98354420 32009,6950.1169999999975,96.105,574.322,569.6419999999998,0.0
49149.0,STARLINK-3053,PAYLOAD,2022-04-03 20:00:01,14.98323387,0.0003291,70.0,314.7493,285.2979,122.9866,-0.0017082,-0.00020413,0.0,0 STARLINK-3053,1 49149U 21082V   22093.83335648 -.00020413  00000-0 -17082-2 0  9998,2 49149  70.0000 314.7493 0003291 285.2979 122.9866 14.98323387 32102,6950.2130000000025,96.107,574.366,569.7909999999998,0.0
49149.0,STARLINK-3053,PAYLOAD,2022-04-03 22:00:00,14.98305959,0.0003298,69.9999,314.5393,286.9917,210.6025,0.0011798,0.00014004,0.0,0 STARLINK-3053,1 49149U 21082V   22093.91667824  .00014004  00000-0  11798-2 0  9996,2 49149  69.9999 314.5393 0003298 286.9917 210.6025 14.98305959  3576,6950.267,96.109,574.424,569.84,0.0
49149.0,STARLINK-3053,PAYLOAD,2022-04-04 12:00:00,14.9829239,0.000325,69.9998,313.0682,281.9169,121.2543,0.0063048,0.00075882,0.0,0 STARLINK-3053,1 49149U 21082V   22094.50001157  .00075882  00000-0  63048-2 0  9999,2 49149  69.9998 313.0682 0003250 281.9169 121.2543 14.98292390 32200,6950.309,96.109,574.433,569.915,0.0
49149.0,STARLINK-3053,PAYLOAD,2022-04-04 14:00:01,14.98323176,0.0003218,70.0,312.8581,281.9783,210.55,0.0024451,0.00029199,0.0,0 STARLINK-3053,1 49149U 21082V   22094.58334491  .00029199  00000-0  24451-2 0  9992,2 49149  70.0000 312.8581 0003218 281.9783 210.5500 14.98323176  3589,6950.214,96.107,574.316,569.842,0.0
49149.0,STARLINK-3053,PAYLOAD,2022-04-04 20:00:01,14.98338791,0.0003311,70.0,312.2277,285.6475,114.9963,-0.0011432,-0.0001371,0.0,0 STARLINK-3053,1 49149U 21082V   22094.83334491 -.00013710  00000-0 -11432-2 0  9999,2 49149  70.0000 312.2277 0003311 285.6475 114.9963 14.98338791 32253,6950.166,96.106,574.332,569.73,0.0
49149.0,STARLINK-3053,PAYLOAD,2022-04-04 22:00:00,14.98322486,0.000331,69.9999,312.0176,287.3825,202.6383,0.0017262999999999,0.00020562,0.0,0 STARLINK-3053,1 49149U 21082V   22094.91667824  .00020562  00000-0  17263-2 0  9996,2 49149  69.9999 312.0176 0003310 287.3825 202.6383 14.98322486  3589,6950.215999999999,96.107,574.382,569.781,0.0
49149.0,STARLINK-3053,PAYLOAD,2022-04-05 12:00:00,14.98327557,0.0003377,69.9999,310.5616,285.6308,109.9954,0.00037611,4.397e-05,0.0,0 STARLINK-3053,1 49149U 21082V   22095.50001157  .00004397  00000-0  37611-3 0  9991,2 49149  69.9999 310.5616 0003377 285.6308 109.9954 14.98327557 32355,6950.2,96.107,574.413,569.7180000000002,0.0
49149.0,STARLINK-3053,PAYLOAD,2022-04-05 14:00:01,14.98339858,0.0003168,70.0001,310.3365,282.4854,202.5695,0.0017279,0.0002059,0.0,0 STARLINK-3053,1 49149U 21082V   22095.58335648  .00020590  00000-0  17279-2 0  9994,2 49149  70.0001 310.3365 0003168 282.4854 202.5695 14.98339858  3559,6950.1619999999975,96.106,574.229,569.826,0.0
49149.0,STARLINK-3053,PAYLOAD,2022-04-05 22:00:00,14.98346196,0.0003329,69.9999,309.4959,287.9472,194.5537,-0.002042,-0.00024384,0.0,0 STARLINK-3053,1 49149U 21082V   22095.91667824 -.00024384  00000-0 -20420-2 0  9994,2 49149  69.9999 309.4959 0003329 287.9472 194.5537 14.98346196  3553,6950.143,96.106,574.322,569.694,0.0
49149.0,STARLINK-3053,PAYLOAD,2022-04-06 14:00:01,14.98327151,0.0003268,70.0,307.8147,282.1231,195.3438,0.0013897,0.00016527,0.0,0 STARLINK-3053,1 49149U 21082V   22096.58334491  .00016527  00000-0  13897-2 0  9997,2 49149  70.0000 307.8147 0003268 282.1231 195.3438 14.98327151 32520,6950.2019999999975,96.107,574.3380000000002,569.795,0.0
49149.0,STARLINK-3053,PAYLOAD,2022-04-06 22:00:00,14.98317698,0.0003381,70.0001,306.9741,287.5677,187.3878,0.0018762,0.00022358,0.0,0 STARLINK-3053,1 49149U 21082V   22096.91667824  .00022358  00000-0  18762-2 0  9998,2 49149  70.0001 306.9741 0003381 287.5677 187.3878 14.98317698  3599,6950.231,96.108,574.446,569.746,0.0
49149.0,STARLINK-3053,PAYLOAD,2022-04-07 04:00:00,14.98354738,0.0003375,69.9996,306.3436,287.5697,95.4874,-0.0037122,-0.00044138,0.0,0 STARLINK-3053,1 49149U 21082V   22097.16667824 -.00044138  00000-0 -37122-2 0  9999,2 49149  69.9996 306.3436 0003375 287.5697  95.4874 14.98354738 32604,6950.116,96.105,574.327,569.636,0.0
49149.0,STARLINK-3053,PAYLOAD,2022-04-07 14:00:01,14.98340374,0.0003287,70.0001,305.2929,281.311,188.6053,0.00099249,0.00011772,0.0,0 STARLINK-3053,1 49149U 21082V   22097.58334491  .00011772  00000-0  99249-3 0  9991,2 49149  70.0001 305.2929 0003287 281.3110 188.6053 14.98340374  3606,6950.161,96.106,574.31,569.741,0.0
49149.0,STARLINK-3053,PAYLOAD,2022-04-07 20:00:01,14.98341692,0.0003386,70.0001,304.6625,285.1522,92.8921,-0.00034433,-4.2e-05,0.0,0 STARLINK-3053,1 49149U 21082V   22097.83334491 -.00004200  00000-0 -34433-3 0  9993,2 49149  70.0001 304.6625 0003386 285.1522  92.8921 14.98341692 32708,6950.156999999997,96.106,574.375,569.668,0.0
49149.0,STARLINK-3053,PAYLOAD,2022-04-07 22:00:00,14.98330586,0.0003393,70.0002,304.4524,286.6318,180.7897,0.0018323,0.00021839,0.0,0 STARLINK-3053,1 49149U 21082V   22097.91667824  .00021839  00000-0  18323-2 0  9995,2 49149  70.0002 304.4524 0003393 286.6318 180.7897 14.98330586  3574,6950.191,96.107,574.414,569.698,0.0
49149.0,STARLINK-3053,PAYLOAD,2022-04-08 14:00:03,14.98332568,0.0003244,70.0003,302.7712,280.8263,181.7028,0.00071147,8.407e-05,0.0,0 STARLINK-3053,1 49149U 21082V   22098.58336806  .00008407  00000-0  71147-3 0  9992,2 49149  70.0003 302.7712 0003244 280.8263 181.7028 14.98332568  3596,6950.185,96.107,574.305,569.795,0.0
49149.0,STARLINK-3053,PAYLOAD,2022-04-08 22:00:00,14.98319414,0.0003361,70.0002,301.9307,286.2178,173.6814,0.0022934,0.00027372,0.0,0 STARLINK-3053,1 49149U 21082V   22098.91667824  .00027372  00000-0  22934-2 0  9997,2 49149  70.0002 301.9307 0003361 286.2178 173.6814 14.98319414  3645,6950.226,96.108,574.427,569.755,0.0
49149.0,STARLINK-3053,PAYLOAD,2022-04-09 04:00:00,14.98353678,0.0003357,69.9999,301.3003,285.8441,82.1499,-0.004091,-0.00048601,0.0,0 STARLINK-3053,1 49149U 21082V   22099.16667824 -.00048601  00000-0 -40910-2 0  9999,2 49149  69.9999 301.3003 0003357 285.8441  82.1499 14.98353678 32901,6950.12,96.105,574.318,569.6519999999998,0.0
49149.0,STARLINK-3053,PAYLOAD,2022-04-09 14:00:01,14.98348398,0.0003246,70.0004,300.2497,280.6622,174.1852,-0.0037431,-0.00044495,0.0,0 STARLINK-3053,1 49149U 21082V   22099.58334491 -.00044495  00000-0 -37431-2 0  9997,2 49149  70.0004 300.2497 0003246 280.6622 174.1852 14.98348398  3587,6950.136,96.106,574.257,569.745,0.0
49149.0,STARLINK-3053,PAYLOAD,2022-04-09 20:00:01,14.98307462,0.0003268,70.0002,299.6194,285.3242,77.6485,0.0001692,1.925e-05,0.0,0 STARLINK-3053,1 49149U 21082V   22099.83334491  .00001925  00000-0  16920-3 0  9995,2 49149  70.0002 299.6194 0003268 285.3242  77.6485 14.98307462 33000,6950.263000000001,96.108,574.399,569.856,0.0
